start=new Date('2021-11-25T00:00:00.000Z').valueOf();
sats=[{"MEAN_MOTION":"15.06389203","SITE":"AFETR","ARG_OF_PERICENTER":"62.8778","EPOCH":"2021-11-24T07:20:44.949984","COUNTRY_CODE":"US","OBJECT_NAME":"STARLINK-1329","PERIAPSIS":"546.150","ELEMENT_SET_NO":"999","MEAN_MOTION_DDOT":"0.0000000000000","MEAN_ELEMENT_THEORY":"SGP4","SEMIMAJOR_AXIS":"6925.382","RA_OF_ASC_NODE":"298.3779","TLE_LINE2":"2 45531  53.0546 298.3779 0001584  62.8778 297.2372 15.06389203 89000","PERIOD":"95.593","OBJECT_ID":"2020-025A","RCS_SIZE":"LARGE","ECCENTRICITY":"0.00015840","TIME_SYSTEM":"UTC","REV_AT_EPOCH":"8900","TLE_LINE1":"1 45531U 20025A   21328.30607581 -.00000561  00000-0 -18775-4 0  9999","DECAY_DATE":null,"BSTAR":"-0.00001877500000","FILE":"3223022","REF_FRAME":"TEME","MEAN_ANOMALY":"297.2372","LAUNCH_DATE":"2020-04-22","MEAN_MOTION_DOT":"-0.00000561","CENTER_NAME":"EARTH","NORAD_CAT_ID":"45531","INCLINATION":"53.0546","CLASSIFICATION_TYPE":"U","GP_ID":"190395736","EPHEMERIS_TYPE":"0","APOAPSIS":"548.344","OBJECT_TYPE":"PAYLOAD"},{"REV_AT_EPOCH":"8900","TIME_SYSTEM":"UTC","DECAY_DATE":null,"TLE_LINE1":"1 45532U 20025B   21328.31713367 -.00000092  00000-0  12725-4 0  9998","RCS_SIZE":"LARGE","ECCENTRICITY":"0.00019020","MEAN_ELEMENT_THEORY":"SGP4","MEAN_MOTION_DDOT":"0.0000000000000","OBJECT_ID":"2020-025B","TLE_LINE2":"2 45532  53.0556 298.3405 0001902  56.4014 303.7156 15.06397843 89006","PERIOD":"95.592","SEMIMAJOR_AXIS":"6925.355","RA_OF_ASC_NODE":"298.3405","ARG_OF_PERICENTER":"56.4014","SITE":"AFETR","MEAN_MOTION":"15.06397843","ELEMENT_SET_NO":"999","OBJECT_NAME":"STARLINK-1338","PERIAPSIS":"545.903","COUNTRY_CODE":"US","EPOCH":"2021-11-24T07:36:40.349088","OBJECT_TYPE":"PAYLOAD","EPHEMERIS_TYPE":"0","APOAPSIS":"548.537","GP_ID":"190395986","NORAD_CAT_ID":"45532","CENTER_NAME":"EARTH","INCLINATION":"53.0556","CLASSIFICATION_TYPE":"U","REF_FRAME":"TEME","FILE":"3223022","MEAN_ANOMALY":"303.7156","BSTAR":"0.00001272500000","MEAN_MOTION_DOT":"-0.00000092","LAUNCH_DATE":"2020-04-22"},{"ECCENTRICITY":"0.00013950","RCS_SIZE":"LARGE","TLE_LINE1":"1 45533U 20025C   21328.35899081  .00161840  00000-0  71860-2 0  9992","DECAY_DATE":null,"TIME_SYSTEM":"UTC","REV_AT_EPOCH":"8903","PERIAPSIS":"503.653","OBJECT_NAME":"STARLINK-1339","COUNTRY_CODE":"US","EPOCH":"2021-11-24T08:36:56.805984","ELEMENT_SET_NO":"999","MEAN_MOTION":"15.20407302","SITE":"AFETR","ARG_OF_PERICENTER":"61.6477","TLE_LINE2":"2 45533  53.0535 296.3225 0001395  61.6477 298.4659 15.20407302 89038","PERIOD":"94.711","SEMIMAJOR_AXIS":"6882.748","RA_OF_ASC_NODE":"296.3225","OBJECT_ID":"2020-025C","MEAN_MOTION_DDOT":"0.0000000000000","MEAN_ELEMENT_THEORY":"SGP4","CLASSIFICATION_TYPE":"U","INCLINATION":"53.0535","NORAD_CAT_ID":"45533","CENTER_NAME":"EARTH","EPHEMERIS_TYPE":"0","APOAPSIS":"505.573","GP_ID":"190396730","OBJECT_TYPE":"PAYLOAD","LAUNCH_DATE":"2020-04-22","MEAN_MOTION_DOT":"0.00161840","BSTAR":"0.00718600000000","MEAN_ANOMALY":"298.4659","FILE":"3223022","REF_FRAME":"TEME"},{"OBJECT_ID":"2020-025D","RA_OF_ASC_NODE":"299.1877","SEMIMAJOR_AXIS":"6925.334","PERIOD":"95.592","TLE_LINE2":"2 45534  53.0546 299.1877 0001862  61.5683 298.5494 15.06404701 88976","MEAN_ELEMENT_THEORY":"SGP4","MEAN_MOTION_DDOT":"0.0000000000000","ELEMENT_SET_NO":"999","COUNTRY_CODE":"US","EPOCH":"2021-11-24T03:05:57.399648","PERIAPSIS":"545.910","OBJECT_NAME":"STARLINK-1341","ARG_OF_PERICENTER":"61.5683","SITE":"AFETR","MEAN_MOTION":"15.06404701","DECAY_DATE":null,"TLE_LINE1":"1 45534U 20025D   21328.12913657 -.00000551  00000-0 -18081-4 0  9995","REV_AT_EPOCH":"8897","TIME_SYSTEM":"UTC","ECCENTRICITY":"0.00018620","RCS_SIZE":"LARGE","MEAN_MOTION_DOT":"-0.00000551","LAUNCH_DATE":"2020-04-22","FILE":"3223022","REF_FRAME":"TEME","MEAN_ANOMALY":"298.5494","BSTAR":"-0.00001808100000","OBJECT_TYPE":"PAYLOAD","GP_ID":"190396474","APOAPSIS":"548.489","EPHEMERIS_TYPE":"0","CLASSIFICATION_TYPE":"U","INCLINATION":"53.0546","CENTER_NAME":"EARTH","NORAD_CAT_ID":"45534"},{"MEAN_MOTION_DDOT":"0.0000000000000","MEAN_ELEMENT_THEORY":"SGP4","SEMIMAJOR_AXIS":"6925.397","RA_OF_ASC_NODE":"298.2181","PERIOD":"95.593","TLE_LINE2":"2 45535  53.0552 298.2181 0001676  65.2034 294.9130 15.06384332 89016","OBJECT_ID":"2020-025E","SITE":"AFETR","MEAN_MOTION":"15.06384332","ARG_OF_PERICENTER":"65.2034","EPOCH":"2021-11-24T08:19:07.935168","COUNTRY_CODE":"US","PERIAPSIS":"546.101","OBJECT_NAME":"STARLINK-1350","ELEMENT_SET_NO":"999","TIME_SYSTEM":"UTC","REV_AT_EPOCH":"8901","TLE_LINE1":"1 45535U 20025E   21328.34661962 -.00000457  00000-0 -11793-4 0  9997","DECAY_DATE":null,"RCS_SIZE":"LARGE","ECCENTRICITY":"0.00016760","BSTAR":"-0.00001179300000","FILE":"3223022","MEAN_ANOMALY":"294.9130","REF_FRAME":"TEME","LAUNCH_DATE":"2020-04-22","MEAN_MOTION_DOT":"-0.00000457","GP_ID":"190395236","APOAPSIS":"548.422","EPHEMERIS_TYPE":"0","OBJECT_TYPE":"PAYLOAD","CENTER_NAME":"EARTH","NORAD_CAT_ID":"45535","INCLINATION":"53.0552","CLASSIFICATION_TYPE":"U"},{"MEAN_ELEMENT_THEORY":"SGP4","MEAN_MOTION_DDOT":"0.0000000000000","OBJECT_ID":"2020-025F","SEMIMAJOR_AXIS":"6925.523","RA_OF_ASC_NODE":"299.0886","PERIOD":"95.596","TLE_LINE2":"2 45536  53.0550 299.0886 0001361  72.7675 287.3463 15.06343146 88978","ARG_OF_PERICENTER":"72.7675","MEAN_MOTION":"15.06343146","SITE":"AFETR","ELEMENT_SET_NO":"999","EPOCH":"2021-11-24T03:37:50.646432","COUNTRY_CODE":"US","OBJECT_NAME":"STARLINK-1352","PERIAPSIS":"546.445","REV_AT_EPOCH":"8897","TIME_SYSTEM":"UTC","DECAY_DATE":null,"TLE_LINE1":"1 45536U 20025F   21328.15128063  .00011319  00000-0  77877-3 0  9998","RCS_SIZE":"LARGE","ECCENTRICITY":"0.00013610","MEAN_ANOMALY":"287.3463","FILE":"3223022","REF_FRAME":"TEME","BSTAR":"0.00077877000000","MEAN_MOTION_DOT":"0.00011319","LAUNCH_DATE":"2020-04-22","OBJECT_TYPE":"PAYLOAD","GP_ID":"190395486","EPHEMERIS_TYPE":"0","APOAPSIS":"548.330","CENTER_NAME":"EARTH","NORAD_CAT_ID":"45536","INCLINATION":"53.0550","CLASSIFICATION_TYPE":"U"},{"OBJECT_ID":"2020-025G","PERIOD":"95.018","TLE_LINE2":"2 45537  53.0021 271.9240 0003348  96.8207 263.3166 15.15499280 89358","RA_OF_ASC_NODE":"271.9240","SEMIMAJOR_AXIS":"6897.600","MEAN_ELEMENT_THEORY":"SGP4","MEAN_MOTION_DDOT":"0.0000000000000","ELEMENT_SET_NO":"999","OBJECT_NAME":"STARLINK-1353","PERIAPSIS":"517.156","EPOCH":"2021-11-24T06:57:05.654592","COUNTRY_CODE":"US","ARG_OF_PERICENTER":"96.8207","MEAN_MOTION":"15.15499280","SITE":"AFETR","DECAY_DATE":null,"TLE_LINE1":"1 45537U 20025G   21328.28964878  .00004313  00000-0  24100-3 0  9992","REV_AT_EPOCH":"8935","TIME_SYSTEM":"UTC","ECCENTRICITY":"0.00033480","RCS_SIZE":"LARGE","MEAN_MOTION_DOT":"0.00004313","LAUNCH_DATE":"2020-04-22","FILE":"3223022","MEAN_ANOMALY":"263.3166","REF_FRAME":"TEME","BSTAR":"0.00024100000000","OBJECT_TYPE":"PAYLOAD","APOAPSIS":"521.775","EPHEMERIS_TYPE":"0","GP_ID":"190396230","CLASSIFICATION_TYPE":"U","INCLINATION":"53.0021","NORAD_CAT_ID":"45537","CENTER_NAME":"EARTH"},{"NORAD_CAT_ID":"45538","CENTER_NAME":"EARTH","CLASSIFICATION_TYPE":"U","INCLINATION":"53.0550","OBJECT_TYPE":"PAYLOAD","EPHEMERIS_TYPE":"0","APOAPSIS":"548.477","GP_ID":"190396975","REF_FRAME":"TEME","FILE":"3223022","MEAN_ANOMALY":"289.4540","BSTAR":"0.00012024000000","MEAN_MOTION_DOT":"0.00001510","LAUNCH_DATE":"2020-04-22","RCS_SIZE":"LARGE","ECCENTRICITY":"0.00018110","REV_AT_EPOCH":"8900","TIME_SYSTEM":"UTC","DECAY_DATE":null,"TLE_LINE1":"1 45538U 20025H   21328.30975239  .00001510  00000-0  12024-3 0  9997","ARG_OF_PERICENTER":"70.6645","SITE":"AFETR","MEAN_MOTION":"15.06396995","ELEMENT_SET_NO":"999","OBJECT_NAME":"STARLINK-1362","PERIAPSIS":"545.969","EPOCH":"2021-11-24T07:26:02.606496","COUNTRY_CODE":"US","MEAN_ELEMENT_THEORY":"SGP4","MEAN_MOTION_DDOT":"0.0000000000000","OBJECT_ID":"2020-025H","PERIOD":"95.592","TLE_LINE2":"2 45538  53.0550 298.3718 0001811  70.6645 289.4540 15.06396995 89004","SEMIMAJOR_AXIS":"6925.358","RA_OF_ASC_NODE":"298.3718"},{"BSTAR":"-0.00002270900000","FILE":"3223022","REF_FRAME":"TEME","MEAN_ANOMALY":"340.8819","LAUNCH_DATE":"2020-04-22","MEAN_MOTION_DOT":"-0.00003569","GP_ID":"190395737","APOAPSIS":"357.683","EPHEMERIS_TYPE":"0","OBJECT_TYPE":"PAYLOAD","CENTER_NAME":"EARTH","NORAD_CAT_ID":"45539","CLASSIFICATION_TYPE":"U","INCLINATION":"53.0552","MEAN_MOTION_DDOT":"0.0000000000000","MEAN_ELEMENT_THEORY":"SGP4","RA_OF_ASC_NODE":"200.9956","SEMIMAJOR_AXIS":"6732.901","PERIOD":"91.635","TLE_LINE2":"2 45539  53.0552 200.9956 0004333  19.2361 340.8819 15.71445884 90328","OBJECT_ID":"2020-025J","MEAN_MOTION":"15.71445884","SITE":"AFETR","ARG_OF_PERICENTER":"19.2361","EPOCH":"2021-11-24T01:07:30.604800","COUNTRY_CODE":"US","PERIAPSIS":"351.849","OBJECT_NAME":"STARLINK-1367","ELEMENT_SET_NO":"999","TIME_SYSTEM":"UTC","REV_AT_EPOCH":"9032","TLE_LINE1":"1 45539U 20025J   21328.04688200 -.00003569  00000-0 -22709-4 0  9998","DECAY_DATE":null,"RCS_SIZE":"LARGE","ECCENTRICITY":"0.00043330"},{"RCS_SIZE":"LARGE","ECCENTRICITY":"0.00019050","TIME_SYSTEM":"UTC","REV_AT_EPOCH":"8900","TLE_LINE1":"1 45540U 20025K   21328.35398673 -.00000164  00000-0  79051-5 0  9996","DECAY_DATE":null,"MEAN_MOTION":"15.06402720","SITE":"AFETR","ARG_OF_PERICENTER":"68.8931","EPOCH":"2021-11-24T08:29:44.453472","COUNTRY_CODE":"US","PERIAPSIS":"545.886","OBJECT_NAME":"STARLINK-1368","ELEMENT_SET_NO":"999","MEAN_MOTION_DDOT":"0.0000000000000","MEAN_ELEMENT_THEORY":"SGP4","SEMIMAJOR_AXIS":"6925.340","RA_OF_ASC_NODE":"298.1799","PERIOD":"95.592","TLE_LINE2":"2 45540  53.0534 298.1799 0001905  68.8931 291.2262 15.06402720 89003","OBJECT_ID":"2020-025K","CENTER_NAME":"EARTH","NORAD_CAT_ID":"45540","CLASSIFICATION_TYPE":"U","INCLINATION":"53.0534","GP_ID":"190395987","EPHEMERIS_TYPE":"0","APOAPSIS":"548.524","OBJECT_TYPE":"PAYLOAD","BSTAR":"0.00000790510000","FILE":"3223022","REF_FRAME":"TEME","MEAN_ANOMALY":"291.2262","LAUNCH_DATE":"2020-04-22","MEAN_MOTION_DOT":"-0.00000164"}];
